{
  "type": "FeatureCollection",
  "features": [
    {
      "type": "Feature",
      "properties": {
        "norad_id": 34963,
        "name": "COSMOS 2251 DEB",
        "group": "cosmos-2251-debris",
        "lat": -66.76391783143285,
        "lon": -10.68106046725879,
        "alt_km": 714.3265670645442,
        "timestamp": "2025-12-19T04:59:48.702404+00:00",
        "meta_object_name": "COSMOS 2251 DEB",
        "meta_object_id": "1993-036AES",
        "meta_epoch": "2025-12-18T09:28:38.471808",
        "meta_mean_motion": 14.51136522,
        "meta_eccentricity": 0.00423247,
        "meta_inclination": 74.1717,
        "meta_ra_of_asc_node": 32.1929,
        "meta_arg_of_pericenter": 227.6243,
        "meta_mean_anomaly": 132.1333,
        "meta_ephemeris_type": 0,
        "meta_classification_type": "U",
        "meta_norad_cat_id": 34963,
        "meta_element_set_no": 999,
        "meta_rev_at_epoch": 86883,
        "meta_bstar": 0.001019062,
        "meta_mean_motion_dot": 4.064e-05,
        "meta_mean_motion_ddot": 0,
        "tle_line1": "1 34963U 93036AES 25352.39488972  .00004064  00000+0  10191-2 0  9990",
        "tle_line2": "2 34963  74.1717  32.1929 0042324 227.6243 132.1333 14.51136522868830"
      },
      "geometry": {
        "type": "Point",
        "coordinates": [
          -10.68106046725879,
          -66.76391783143285
        ]
      }
    },
    {
      "type": "Feature",
      "properties": {
        "norad_id": 34964,
        "name": "COSMOS 2251 DEB",
        "group": "cosmos-2251-debris",
        "lat": -30.786976839730947,
        "lon": 166.44352022111767,
        "alt_km": 750.4350845941326,
        "timestamp": "2025-12-19T04:59:48.702414+00:00",
        "meta_object_name": "COSMOS 2251 DEB",
        "meta_object_id": "1993-036AET",
        "meta_epoch": "2025-12-18T07:25:04.519776",
        "meta_mean_motion": 14.00628567,
        "meta_eccentricity": 0.02123167,
        "meta_inclination": 73.9712,
        "meta_ra_of_asc_node": 338.1457,
        "meta_arg_of_pericenter": 195.4091,
        "meta_mean_anomaly": 164.0515,
        "meta_ephemeris_type": 0,
        "meta_classification_type": "U",
        "meta_norad_cat_id": 34964,
        "meta_element_set_no": 999,
        "meta_rev_at_epoch": 84556,
        "meta_bstar": 0.00089791859,
        "meta_mean_motion_dot": 1.6e-05,
        "meta_mean_motion_ddot": 0,
        "tle_line1": "1 34964U 93036AET 25352.30908009  .00001600  00000+0  89792-3 0  9997",
        "tle_line2": "2 34964  73.9712 338.1457 0212316 195.4091 164.0515 14.00628567845561"
      },
      "geometry": {
        "type": "Point",
        "coordinates": [
          166.44352022111767,
          -30.786976839730947
        ]
      }
    },
    {
      "type": "Feature",
      "properties": {
        "norad_id": 34965,
        "name": "COSMOS 2251 DEB",
        "group": "cosmos-2251-debris",
        "lat": -37.877606014053924,
        "lon": 103.50672381764063,
        "alt_km": 731.8829119221446,
        "timestamp": "2025-12-19T04:59:48.702425+00:00",
        "meta_object_name": "COSMOS 2251 DEB",
        "meta_object_id": "1993-036AEU",
        "meta_epoch": "2025-12-17T15:03:41.961600",
        "meta_mean_motion": 14.48719577,
        "meta_eccentricity": 0.00264531,
        "meta_inclination": 74.0515,
        "meta_ra_of_asc_node": 119.3168,
        "meta_arg_of_pericenter": 245.8821,
        "meta_mean_anomaly": 113.9572,
        "meta_ephemeris_type": 0,
        "meta_classification_type": "U",
        "meta_norad_cat_id": 34965,
        "meta_element_set_no": 999,
        "meta_rev_at_epoch": 87184,
        "meta_bstar": 0.00029308961,
        "meta_mean_motion_dot": 1.082e-05,
        "meta_mean_motion_ddot": 0,
        "tle_line1": "1 34965U 93036AEU 25351.62756900  .00001082  00000+0  29309-3 0  9995",
        "tle_line2": "2 34965  74.0515 119.3168 0026453 245.8821 113.9572 14.48719577871849"
      },
      "geometry": {
        "type": "Point",
        "coordinates": [
          103.50672381764063,
          -37.877606014053924
        ]
      }
    },
    {
      "type": "Feature",
      "properties": {
        "norad_id": 34967,
        "name": "COSMOS 2251 DEB",
        "group": "cosmos-2251-debris",
        "lat": 48.84450458357254,
        "lon": 42.623225944926084,
        "alt_km": 744.9538842508291,
        "timestamp": "2025-12-19T04:59:48.702435+00:00",
        "meta_object_name": "COSMOS 2251 DEB",
        "meta_object_id": "1993-036AEW",
        "meta_epoch": "2025-12-13T00:27:20.673792",
        "meta_mean_motion": 14.44269018,
        "meta_eccentricity": 0.00380101,
        "meta_inclination": 73.9933,
        "meta_ra_of_asc_node": 253.3374,
        "meta_arg_of_pericenter": 39.5345,
        "meta_mean_anomaly": 320.8573,
        "meta_ephemeris_type": 0,
        "meta_classification_type": "U",
        "meta_norad_cat_id": 34967,
        "meta_element_set_no": 999,
        "meta_rev_at_epoch": 64961,
        "meta_bstar": 0.0011451852,
        "meta_mean_motion_dot": 3.946e-05,
        "meta_mean_motion_ddot": 0,
        "tle_line1": "1 34967U 93036AEW 25347.01898928  .00003946  00000+0  11452-2 0  9992",
        "tle_line2": "2 34967  73.9933 253.3374 0038010  39.5345 320.8573 14.44269018649616"
      },
      "geometry": {
        "type": "Point",
        "coordinates": [
          42.623225944926084,
          48.84450458357254
        ]
      }
    },
    {
      "type": "Feature",
      "properties": {
        "norad_id": 34968,
        "name": "COSMOS 2251 DEB",
        "group": "cosmos-2251-debris",
        "lat": -24.135853563120023,
        "lon": -132.62834875457494,
        "alt_km": 641.890243232654,
        "timestamp": "2025-12-19T04:59:48.702445+00:00",
        "meta_object_name": "COSMOS 2251 DEB",
        "meta_object_id": "1993-036AEX",
        "meta_epoch": "2025-12-18T15:56:55.317696",
        "meta_mean_motion": 14.59416271,
        "meta_eccentricity": 0.00869148,
        "meta_inclination": 74.0386,
        "meta_ra_of_asc_node": 235.7756,
        "meta_arg_of_pericenter": 354.6582,
        "meta_mean_anomaly": 5.3646,
        "meta_ephemeris_type": 0,
        "meta_classification_type": "U",
        "meta_norad_cat_id": 34968,
        "meta_element_set_no": 999,
        "meta_rev_at_epoch": 88564,
        "meta_bstar": 0.00010693507,
        "meta_mean_motion_dot": 5.01e-06,
        "meta_mean_motion_ddot": 0,
        "tle_line1": "1 34968U 93036AEX 25352.66452914  .00000501  00000+0  10694-3 0  9993",
        "tle_line2": "2 34968  74.0386 235.7756 0086914 354.6582   5.3646 14.59416271885641"
      },
      "geometry": {
        "type": "Point",
        "coordinates": [
          -132.62834875457494,
          -24.135853563120023
        ]
      }
    },
    {
      "type": "Feature",
      "properties": {
        "norad_id": 34969,
        "name": "COSMOS 2251 DEB",
        "group": "cosmos-2251-debris",
        "lat": 24.470841911803277,
        "lon": -176.17053337070814,
        "alt_km": 731.5368371109398,
        "timestamp": "2025-12-19T04:59:48.702455+00:00",
        "meta_object_name": "COSMOS 2251 DEB",
        "meta_object_id": "1993-036AEY",
        "meta_epoch": "2025-12-15T18:08:26.126880",
        "meta_mean_motion": 14.32260529,
        "meta_eccentricity": 0.00734759,
        "meta_inclination": 74.0142,
        "meta_ra_of_asc_node": 17.6317,
        "meta_arg_of_pericenter": 150.1137,
        "meta_mean_anomaly": 210.4241,
        "meta_ephemeris_type": 0,
        "meta_classification_type": "U",
        "meta_norad_cat_id": 34969,
        "meta_element_set_no": 999,
        "meta_rev_at_epoch": 65180,
        "meta_bstar": 0.00024953546,
        "meta_mean_motion_dot": 6.68e-06,
        "meta_mean_motion_ddot": 0,
        "tle_line1": "1 34969U 93036AEY 25349.75585795  .00000668  00000+0  24954-3 0  9992",
        "tle_line2": "2 34969  74.0142  17.6317 0073475 150.1137 210.4241 14.32260529651808"
      },
      "geometry": {
        "type": "Point",
        "coordinates": [
          -176.17053337070814,
          24.470841911803277
        ]
      }
    },
    {
      "type": "Feature",
      "properties": {
        "norad_id": 34971,
        "name": "COSMOS 2251 DEB",
        "group": "cosmos-2251-debris",
        "lat": -47.62203152866647,
        "lon": -105.64688499338143,
        "alt_km": 762.5603129137198,
        "timestamp": "2025-12-19T04:59:48.702492+00:00",
        "meta_object_name": "COSMOS 2251 DEB",
        "meta_object_id": "1993-036AFA",
        "meta_epoch": "2025-12-18T11:38:13.277760",
        "meta_mean_motion": 14.55642375,
        "meta_eccentricity": 0.00693978,
        "meta_inclination": 73.9787,
        "meta_ra_of_asc_node": 274.0839,
        "meta_arg_of_pericenter": 138.3039,
        "meta_mean_anomaly": 342.538,
        "meta_ephemeris_type": 0,
        "meta_classification_type": "U",
        "meta_norad_cat_id": 34971,
        "meta_element_set_no": 999,
        "meta_rev_at_epoch": 66256,
        "meta_bstar": 0.00012982435,
        "meta_mean_motion_dot": 5.55e-06,
        "meta_mean_motion_ddot": 0,
        "tle_line1": "1 34971U 93036AFA 25352.48487590  .00000555  00000+0  12982-3 0  9996",
        "tle_line2": "2 34971  73.9787 274.0839 0069397 138.3039 342.5380 14.55642375662563"
      },
      "geometry": {
        "type": "Point",
        "coordinates": [
          -105.64688499338143,
          -47.62203152866647
        ]
      }
    }
  ]
}